FLOCK 4S-29             
1 47520U 21006DL  21358.44364402  .00008380  00000+0  47219-3 0  9997
2 47520  97.4640  55.6686 0008398 166.7829 193.3624 15.13421273 50768
FLOCK 4S-15             
1 47521U 21006DM  21358.42356090  .00003120  00000+0  17812-3 0  9993
2 47521  97.4731  56.1009 0008851 168.1106 192.0336 15.13431304 51733
FLOCK 4S-37             
1 47522U 21006DN  21358.44742038  .00008908  00000+0  50161-3 0  9990
2 47522  97.4724  56.0475 0008440 168.2872 191.8557 15.13426583 51732
FLOCK 4S-10             
1 47523U 21006DP  21358.41524404  .00005382  00000+0  30516-3 0  9998
2 47523  97.4659  55.6511 0008551 171.5898 188.5478 15.13363187 50750
LEMUR-2-JENNIFERSONG    
1 47525U 21006DR  21358.72874619  .00006646  00000+0  36666-3 0  9996
2 47525  97.4665  56.4617 0012026 158.9842 201.1887 15.14224787 50833
KEPLER-14 (STELLA)      
1 47526U 21006DS  21358.11171005  .00003881  00000+0  22512-3 0  9992
2 47526  97.4622  55.1325 0008928 169.2028 190.9396 15.12710254 51665
FLOCK 4S-7              
1 47527U 21006DT  21358.71631174  .00007584  00000+0  42799-3 0  9990
2 47527  97.4631  55.8964 0008812 168.8663 191.2765 15.13397518 51764
FLOCK 4S-14             
1 47528U 21006DU  21358.38627039  .00003456  00000+0  19723-3 0  9994
2 47528  97.4730  55.9864 0008692 169.1816 190.9603 15.13370947 51714
LEMUR-2-CHANTAL         
1 47529U 21006DV  21358.42975254  .00006013  00000+0  34425-3 0  9993
2 47529  97.4666  55.6303 0008184 162.4750 197.6765 15.12970761 51719
FLOCK 4S-36             
1 47530U 21006DW  21358.12504964  .00003328  00000+0  19010-3 0  9997
2 47530  97.4717  55.6844 0008210 167.3595 192.7843 15.13374645 51677
KEPLER-9 (ARTEMIS)      
1 47531U 21006DX  21358.77760642  .00005292  00000+0  30510-3 0  9996
2 47531  97.4742  56.2743 0009066 171.0407 189.0987 15.12770308 51768
YAOGAN 31 D             
1 47532U 21007A   21358.74952414 -.00000075  00000+0  25364-4 0  9992
2 47532  63.4089  23.2245 0029734 342.9382  17.0645 13.45219888 44322
YAOGAN 31 E             
1 47533U 21007B   21358.82387685 -.00000031  00000+0  10000-3 0  9996
2 47533  63.4085  22.1295 0029996 343.1699  16.8326 13.45220754 44345
YAOGAN 31 F             
1 47536U 21007E   21358.82367553 -.00000031  00000+0  10000-3 0  9991
2 47536  63.4085  22.1328 0029917 343.1216  16.8803 13.45220769 44350
LEMUR-2-NOOBNOOB        
1 47538U 21006DY  21358.43236056  .00006504  00000+0  36206-3 0  9998
2 47538  97.4728  56.3525 0011708 160.0066 200.1627 15.13919024 50781
FLOCK 4S-24             
1 47539U 21006DZ  21358.39084048  .00003637  00000+0  20680-3 0  9999
2 47539  97.4669  56.0023 0012077 155.2786 204.9027 15.13443550 50772
FLOCK 4S-20             
1 47540U 21006EA  21358.72447709  .00003166  00000+0  18059-3 0  9999
2 47540  97.4723  56.5618 0011766 154.2013 205.9807 15.13432093 49894
HIBER-4                 
1 47541U 21006EB  21358.20593333  .00004465  00000+0  25260-3 0  9993
2 47541  97.4618  55.6401 0012198 159.3607 200.8120 15.13506390 50743
FLOCK 4S-25             
1 47542U 21006EC  21358.40289646  .00003134  00000+0  17888-3 0  9994
2 47542  97.4646  55.9000 0011685 156.2771 203.9002 15.13412330 49843
FLOCK 4S-1              
1 47543U 21006ED  21358.39840964  .00003176  00000+0  18111-3 0  9995
2 47543  97.4647  55.8986 0011282 153.2489 206.9326 15.13434626 49847
FLOCK 4S-30             
1 47544U 21006EE  21358.44686023  .00005694  00000+0  32233-3 0  9994
2 47544  97.4645  55.6939 0008442 167.2186 192.9261 15.13397368 51728
FLOCK 4S-23             
1 47545U 21006EF  21358.44677643  .00003658  00000+0  20758-3 0  9990
2 47545  97.4680  56.1244 0012081 154.9305 205.2516 15.13513015 51756
COSMOS 2549             
1 47546U 21008A   21358.75489572 -.00000053  00000+0  16052-4 0  9999
2 47546  67.1503   0.7184 0005538 276.1143  83.9313 13.96675226 45424
STARLINK-1782           
1 47548U 21009A   21358.48606969  .00007232  00000+0  50378-3 0  9996
2 47548  53.0539  67.9173 0001420  89.4884 270.6268 15.06408364 49399
STARLINK-1806           
1 47549U 21009B   21358.68142934  .00003489  00000+0  25295-3 0  9996
2 47549  53.0553  67.0286 0001272  84.9190 275.1944 15.06403292 50036
STARLINK-1909           
1 47550U 21009C   21358.56072005  .00003026  00000+0  22190-3 0  9994
2 47550  53.0555  57.5785 0001206  86.7002 273.4124 15.06405492 50155
STARLINK-1938           
1 47551U 21009D   21358.48883507  .00012097  00000+0  82927-3 0  9995
2 47551  53.0546  77.8881 0001420  91.9658 268.1493 15.06416068 49251
STARLINK-1940           
1 47552U 21009E   21358.55979032  .00006451  00000+0  45151-3 0  9998
2 47552  53.0544  67.5784 0001127  89.7203 270.3915 15.06406221 50002
STARLINK-1951           
1 47553U 21009F   21358.47899745  .00102491  00000+0  32711-2 0  9990
2 47553  53.0590  64.4432 0002122  40.3760 319.7397 15.31680662 49446
STARLINK-1953           
1 47554U 21009G   21358.56532374  .00001061  00000+0  90211-4 0  9995
2 47554  53.0562  87.5473 0003264 172.7291 187.3746 15.06387651 49737
STARLINK-1954           
1 47555U 21009H   21358.54043114 -.00002290  00000+0 -13494-3 0  9997
2 47555  53.0530  77.6657 0001316 105.1820 254.9315 15.06395153 49864
STARLINK-1955           
1 47556U 21009J   21358.77449260 -.00002093  00000+0 -12168-3 0  9993
2 47556  53.0546  96.6010 0001325  95.7927 264.3213 15.06390519 49614
STARLINK-1956           
1 47557U 21009K   21358.73763105  .00009181  00000+0  63416-3 0  9992
2 47557  53.0543  96.7871 0001327  84.4112 275.7029 15.06414502 49611
STARLINK-1957           
1 47558U 21009L   21358.71828719 -.00000717  00000+0 -29276-4 0  9999
2 47558  53.0558  66.8527 0001274  77.6629 282.4503 15.06389714 50027
STARLINK-1958           
1 47559U 21009M   21358.68235974  .00005009  00000+0  35499-3 0  9991
2 47559  53.0537  57.0255 0001455  72.1716 287.9431 15.06390733 50172
STARLINK-1959           
1 47560U 21009N   21358.47592633  .00002093  00000+0  15934-3 0  9990
2 47560  53.0543  57.9595 0001231  80.5754 279.5374 15.06397390 49531
STARLINK-1960           
1 47561U 21009P   21358.72842011 -.00000537  00000+0 -17058-4 0  9990
2 47561  53.0539  76.8295 0004350 141.1488 218.9814 15.06392335 49896
STARLINK-1961           
1 47562U 21009Q   21358.54412363  .00002650  00000+0  19669-3 0  9999
2 47562  53.0552  77.6522 0001363  78.2089 281.9053 15.06405822 49860
STARLINK-1962           
1 47563U 21009R   21358.49989236  .00003232  00000+0  23579-3 0  9994
2 47563  53.0571  77.8518 0001317  97.1327 262.9811 15.06392801 49855
STARLINK-1963           
1 47564U 21009S   21358.69985508  .00002942  00000+0  21631-3 0  9999
2 47564  53.0566  66.9489 0001167  95.4746 264.6376 15.06397520 50024
STARLINK-1964           
1 47565U 21009T   21358.56347673  .00001647  00000+0  12942-3 0  9997
2 47565  53.0554  67.5592 0001391  75.4262 284.6881 15.06401220 49400
STARLINK-1965           
1 47566U 21009U   21358.68972962  .00001141  00000+0  95540-4 0  9991
2 47566  53.0561  56.9867 0001200  84.9997 275.1129 15.06380559 50172
STARLINK-1966           
1 47567U 21009V   21358.52753796  .00000744  00000+0  68854-4 0  9993
2 47567  53.0543  97.7233 0001253  85.2016 274.9116 15.06396364 49573
STARLINK-1967           
1 47568U 21009W   21358.75237670 -.00003008  00000+0 -18312-3 0  9998
2 47568  53.0526  96.7107 0001386  99.1937 260.9208 15.06397276 49612
STARLINK-1968           
1 47569U 21009X   21358.57354054  .00004461  00000+0  11195-3 0  9999
2 47569  53.0521  60.4599 0002758  14.7303 345.3782 15.42152888 50115
STARLINK-1969           
1 47570U 21009Y   21358.54595957  .00001893  00000+0  14593-3 0  9998
2 47570  53.0542  57.6385 0001042  67.7078 292.4021 15.06401513 50157
STARLINK-1970           
1 47571U 21009Z   21358.55610742  .00003976  00000+0  28568-3 0  9991
2 47571  53.0557  67.5992 0001344  78.5524 281.5616 15.06401035 50001
STARLINK-1971           
1 47572U 21009AA  21358.53768455  .00005167  00000+0  36558-3 0  9997
2 47572  53.0566  67.6635 0001367  76.5500 283.5641 15.06396034 50006
STARLINK-1975           
1 47573U 21009AB  21358.44920298  .00003841  00000+0  27663-3 0  9997
2 47573  53.0567  68.0611 0001191  81.0121 279.1002 15.06398526 49381
STARLINK-1976           
1 47574U 21009AC  21358.53121900 -.00000161  00000+0  80621-5 0  9999
2 47574  53.0550  97.6966 0001230  93.3111 266.8019 15.06390358 49571
STARLINK-1977           
1 47575U 21009AD  21358.58650728  .00004766  00000+0  33855-3 0  9999
2 47575  53.0546  97.4496 0001300  97.4275 262.6862 15.06405728 49586
STARLINK-1978           
1 47576U 21009AE  21358.48698738  .00004124  00000+0  29554-3 0  9991
2 47576  53.0528  57.8996 0001452  66.8303 293.2839 15.06404022 49537
STARLINK-1979           
1 47577U 21009AF  21358.52799463 -.00000440  00000+0 -10647-4 0  9997
2 47577  53.0534  72.7286 0001379  89.1098 271.0049 15.06390451 49931
STARLINK-1980           
1 47578U 21009AG  21358.52200072 -.00004186  00000+0 -26240-3 0  9997
2 47578  53.0546  77.7363 0001391  92.0242 268.0906 15.06386554 49852
STARLINK-1981           
1 47579U 21009AH  21358.50450639  .00002714  00000+0  20109-3 0  9993
2 47579  53.0562  67.8193 0001396  82.2478 277.8670 15.06393354 49390
STARLINK-1982           
1 47580U 21009AJ  21358.52569645 -.00003007  00000+0 -18314-3 0  9998
2 47580  53.0558  77.7156 0001390  79.3402 280.7743 15.06378346 49853
STARLINK-1984           
1 47581U 21009AK  21358.63811797  .00000200  00000+0  32295-4 0  9994
2 47581  53.0556  57.2208 0001434  81.4382 278.6770 15.06395053 50169
STARLINK-1986           
1 47582U 21009AL  21358.49251167  .00004939  00000+0  35020-3 0  9999
2 47582  53.0540  77.8874 0001348  89.1231 270.9912 15.06405766 49256
STARLINK-1987           
1 47583U 21009AM  21358.53675505  .00001076  00000+0  91158-4 0  9995
2 47583  53.0536  77.6786 0001197  85.0535 275.0591 15.06390064 49877
